0 SL-14 DEB
1 21913U 78100AR  13283.99324022  .00000125  00000-0  14608-2 0  3904
2 21913 082.5442 128.9519 0013996 158.1752 323.2949 11.98908844953219
0 SL-14 DEB
1 21913U 78100AR  13286.00459920  .00000185  00000-0  22215-2 0  3915
2 21913 082.5438 127.8087 0014078 154.0960 004.5094 11.98908742953453
0 SL-14 DEB
1 21913U 78100AR  13288.00670128  .00000267  00000-0  32505-2 0  3927
2 21913 082.5436 126.6709 0014150 150.1108 005.6948 11.98908901953694
0 SL-14 DEB
1 21913U 78100AR  13291.01076578  .00000249  00000-0  30135-2 0  3939
2 21913 082.5436 124.9636 0014223 144.2476 011.2947 11.98910361954053
0 SL-14 DEB
1 21913U 78100AR  13293.01345959  .00000208  00000-0  25053-2 0  3942
2 21913 082.5438 123.8253 0014265 140.3214 014.9829 11.98911685954296
0 SL-14 DEB
1 21913U 78100AR  13295.48720185  .00000120  00000-0  13985-2 0  3958
2 21913 082.5437 122.4192 0014295 135.5010 251.7122 11.98913275954592
